0 FENGYUN 1C DEB
1 30874U 99025AXL 13281.36385538  .00000563  00000-0  31907-3 0   722
2 30874 098.9706 336.9435 0045947 158.4283 262.5715 14.13593522341164
0 FENGYUN 1C DEB
1 30874U 99025AXL 13283.00307994  .00000625  00000-0  35149-3 0   737
2 30874 098.9705 338.5874 0045977 153.9095 324.3719 14.13597200341395
0 FENGYUN 1C DEB
1 30874U 99025AXL 13284.12325973  .00000599  00000-0  33783-3 0   741
2 30874 098.9704 339.7108 0045997 150.8063 264.8416 14.13598961341555
0 FENGYUN 1C DEB
1 30874U 99025AXL 13285.39884382  .00000443  00000-0  25599-3 0   750
2 30874 098.9702 340.9901 0046014 147.2956 276.1330 14.13601251341738
0 FENGYUN 1C DEB
1 30874U 99025AXL 13286.61984440  .00000534  00000-0  30360-3 0   766
2 30874 098.9699 342.2147 0046019 143.9204 009.6828 14.13602294341902
0 FENGYUN 1C DEB
1 30874U 99025AXL 13288.37125149  .00000827  00000-0  45764-3 0   774
2 30874 098.9694 343.9712 0046035 139.0673 282.4461 14.13604613342156
0 FENGYUN 1C DEB
1 30874U 99025AXL 13289.66404260  .00000769  00000-0  42712-3 0   787
2 30874 098.9691 345.2678 0046034 135.5163 021.3288 14.13606345342334
0 FENGYUN 1C DEB
1 30874U 99025AXL 13290.72036079  .00000756  00000-0  42024-3 0   798
2 30874 098.9688 346.3270 0046034 132.6168 356.8265 14.13607953342486
0 FENGYUN 1C DEB
1 30874U 99025AXL 13292.11701869  .00000678  00000-0  37934-3 0   808
2 30874 098.9685 347.7275 0046011 128.7768 264.2929 14.13610618342683
0 FENGYUN 1C DEB
1 30874U 99025AXL 13293.39695839  .00000633  00000-0  35547-3 0   818
2 30874 098.9685 349.0108 0045992 125.2413 297.8171 14.13613358342864
0 FENGYUN 1C DEB
1 30874U 99025AXL 13294.68382314  .00000675  00000-0  37763-3 0   821
2 30874 098.9686 350.3010 0045958 121.6799 006.6040 14.13614966343049
